CCSDS_OMM_VERS = 2.0
CREATION_DATE  = 
ORIGINATOR     = 

OBJECT_NAME    = SL-14 R/B
OBJECT_ID      = 1986-046B
CENTER_NAME    = EARTH
REF_FRAME      = TEME
TIME_SYSTEM    = UTC
MEAN_ELEMENT_THEORY = SGP/SGP4

EPOCH          = 2026-01-14T18:54:18.011808
MEAN_MOTION    = 14.85527283
ECCENTRICITY   = .00242
INCLINATION    = 82.4835
RA_OF_ASC_NODE = 131.1055
ARG_OF_PERICENTER = 48.7528
MEAN_ANOMALY   = 311.5768

EPHEMERIS_TYPE = 0
CLASSIFICATION_TYPE = U
NORAD_CAT_ID   = 16792
ELEMENT_SET_NO = 999
REV_AT_EPOCH   = 11840
BSTAR          = .35559E-4
MEAN_MOTION_DOT = .333E-5
MEAN_MOTION_DDOT = 0

CCSDS_OMM_VERS = 2.0
CREATION_DATE  = 
ORIGINATOR     = 

OBJECT_NAME    = SL-14 R/B
OBJECT_ID      = 1986-055B
CENTER_NAME    = EARTH
REF_FRAME      = TEME
TIME_SYSTEM    = UTC
MEAN_ELEMENT_THEORY = SGP/SGP4

EPOCH          = 2026-01-14T23:50:47.959296
MEAN_MOTION    = 14.85571098
ECCENTRICITY   = .00197324
INCLINATION    = 82.5206
RA_OF_ASC_NODE = 177.1243
ARG_OF_PERICENTER = 146.2579
MEAN_ANOMALY   = 310.1844

EPHEMERIS_TYPE = 0
CLASSIFICATION_TYPE = U
NORAD_CAT_ID   = 16882
ELEMENT_SET_NO = 999
REV_AT_EPOCH   = 11139
BSTAR          = .41173458E-4
MEAN_MOTION_DOT = .382E-5
MEAN_MOTION_DDOT = 0

CCSDS_OMM_VERS = 2.0
CREATION_DATE  = 
ORIGINATOR     = 

OBJECT_NAME    = AJISAI (EGS)
OBJECT_ID      = 1986-061A
CENTER_NAME    = EARTH
REF_FRAME      = TEME
TIME_SYSTEM    = UTC
MEAN_ELEMENT_THEORY = SGP/SGP4

EPOCH          = 2026-01-14T23:45:11.305152
MEAN_MOTION    = 12.44514917
ECCENTRICITY   = .00113033
INCLINATION    = 50.0080
RA_OF_ASC_NODE = 258.4773
ARG_OF_PERICENTER = 149.4028
MEAN_ANOMALY   = 278.0028

EPHEMERIS_TYPE = 0
CLASSIFICATION_TYPE = U
NORAD_CAT_ID   = 16908
ELEMENT_SET_NO = 999
REV_AT_EPOCH   = 46131
BSTAR          = .17660151E-3
MEAN_MOTION_DOT = -.72E-6
MEAN_MOTION_DDOT = 0

CCSDS_OMM_VERS = 2.0
CREATION_DATE  = 
ORIGINATOR     = 

OBJECT_NAME    = COSMOS 1812
OBJECT_ID      = 1987-003A
CENTER_NAME    = EARTH
REF_FRAME      = TEME
TIME_SYSTEM    = UTC
MEAN_ELEMENT_THEORY = SGP/SGP4

EPOCH          = 2026-01-14T17:43:05.129184
MEAN_MOTION    = 15.84020892
ECCENTRICITY   = .0002857
INCLINATION    = 82.4836
RA_OF_ASC_NODE = 256.0838
ARG_OF_PERICENTER = 48.5560
MEAN_ANOMALY   = 311.5954

EPHEMERIS_TYPE = 0
CLASSIFICATION_TYPE = U
NORAD_CAT_ID   = 17295
ELEMENT_SET_NO = 999
REV_AT_EPOCH   = 13586
BSTAR          = .45344E-3
MEAN_MOTION_DOT = .101978E-2
MEAN_MOTION_DDOT = 0

CCSDS_OMM_VERS = 2.0
CREATION_DATE  = 
ORIGINATOR     = 

OBJECT_NAME    = SL-14 R/B
OBJECT_ID      = 1987-024B
CENTER_NAME    = EARTH
REF_FRAME      = TEME
TIME_SYSTEM    = UTC
MEAN_ELEMENT_THEORY = SGP/SGP4

EPOCH          = 2026-01-14T20:10:37.089984
MEAN_MOTION    = 14.86067420
ECCENTRICITY   = .00197166
INCLINATION    = 82.5300
RA_OF_ASC_NODE = 143.3609
ARG_OF_PERICENTER = 80.1167
MEAN_ANOMALY   = 280.2274

EPHEMERIS_TYPE = 0
CLASSIFICATION_TYPE = U
NORAD_CAT_ID   = 17567
ELEMENT_SET_NO = 999
REV_AT_EPOCH   = 8013
BSTAR          = .38332666E-4
MEAN_MOTION_DOT = .361E-5
MEAN_MOTION_DDOT = 0

CCSDS_OMM_VERS = 2.0
CREATION_DATE  = 
ORIGINATOR     = 

OBJECT_NAME    = COSMOS 1833
OBJECT_ID      = 1987-027A
CENTER_NAME    = EARTH
REF_FRAME      = TEME
TIME_SYSTEM    = UTC
MEAN_ELEMENT_THEORY = SGP/SGP4

EPOCH          = 2026-01-14T13:33:05.342688
MEAN_MOTION    = 14.13043598
ECCENTRICITY   = .0024095
INCLINATION    = 70.9191
RA_OF_ASC_NODE = 79.7786
ARG_OF_PERICENTER = 286.4545
MEAN_ANOMALY   = 73.3928

EPHEMERIS_TYPE = 0
CLASSIFICATION_TYPE = U
NORAD_CAT_ID   = 17589
ELEMENT_SET_NO = 999
REV_AT_EPOCH   = 267
BSTAR          = .18513E-3
MEAN_MOTION_DOT = .298E-5
MEAN_MOTION_DDOT = 0

CCSDS_OMM_VERS = 2.0
CREATION_DATE  = 
ORIGINATOR     = 

OBJECT_NAME    = SL-16 R/B
OBJECT_ID      = 1987-027B
CENTER_NAME    = EARTH
REF_FRAME      = TEME
TIME_SYSTEM    = UTC
MEAN_ELEMENT_THEORY = SGP/SGP4

EPOCH          = 2026-01-14T18:22:30.851904
MEAN_MOTION    = 14.17160416
ECCENTRICITY   = .0006481
INCLINATION    = 71.0033
RA_OF_ASC_NODE = 30.1246
ARG_OF_PERICENTER = 224.5002
MEAN_ANOMALY   = 135.5602

EPHEMERIS_TYPE = 0
CLASSIFICATION_TYPE = U
NORAD_CAT_ID   = 17590
ELEMENT_SET_NO = 999
REV_AT_EPOCH   = 770
BSTAR          = .20952E-5
MEAN_MOTION_DOT = -.44E-6
MEAN_MOTION_DDOT = 0

CCSDS_OMM_VERS = 2.0
CREATION_DATE  = 
ORIGINATOR     = 

OBJECT_NAME    = SL-14 R/B
OBJECT_ID      = 1987-038B
CENTER_NAME    = EARTH
REF_FRAME      = TEME
TIME_SYSTEM    = UTC
MEAN_ELEMENT_THEORY = SGP/SGP4

EPOCH          = 2026-01-14T22:37:25.944960
MEAN_MOTION    = 14.85300507
ECCENTRICITY   = .00189251
INCLINATION    = 82.5024
RA_OF_ASC_NODE = 347.4243
ARG_OF_PERICENTER = 347.2208
MEAN_ANOMALY   = 12.8525

EPHEMERIS_TYPE = 0
CLASSIFICATION_TYPE = U
NORAD_CAT_ID   = 17912
ELEMENT_SET_NO = 999
REV_AT_EPOCH   = 7125
BSTAR          = .40445076E-4
MEAN_MOTION_DOT = .372E-5
MEAN_MOTION_DDOT = 0

CCSDS_OMM_VERS = 2.0
CREATION_DATE  = 
ORIGINATOR     = 

OBJECT_NAME    = COSMOS 1844
OBJECT_ID      = 1987-041A
CENTER_NAME    = EARTH
REF_FRAME      = TEME
TIME_SYSTEM    = UTC
MEAN_ELEMENT_THEORY = SGP/SGP4

EPOCH          = 2026-01-14T19:09:34.866144
MEAN_MOTION    = 14.14537953
ECCENTRICITY   = .0028289
INCLINATION    = 70.8997
RA_OF_ASC_NODE = 147.8464
ARG_OF_PERICENTER = 104.4367
MEAN_ANOMALY   = 255.9897

EPHEMERIS_TYPE = 0
CLASSIFICATION_TYPE = U
NORAD_CAT_ID   = 17973
ELEMENT_SET_NO = 999
REV_AT_EPOCH   = 99596
BSTAR          = -.10426E-3
MEAN_MOTION_DOT = -.249E-5
MEAN_MOTION_DDOT = 0

CCSDS_OMM_VERS = 2.0
CREATION_DATE  = 
ORIGINATOR     = 

OBJECT_NAME    = SL-14 R/B
OBJECT_ID      = 1987-055B
CENTER_NAME    = EARTH
REF_FRAME      = TEME
TIME_SYSTEM    = UTC
MEAN_ELEMENT_THEORY = SGP/SGP4

EPOCH          = 2026-01-14T19:03:29.680992
MEAN_MOTION    = 14.85558204
ECCENTRICITY   = .0020419
INCLINATION    = 82.4977
RA_OF_ASC_NODE = 39.8305
ARG_OF_PERICENTER = 187.5224
MEAN_ANOMALY   = 172.5689

EPHEMERIS_TYPE = 0
CLASSIFICATION_TYPE = U
NORAD_CAT_ID   = 18153
ELEMENT_SET_NO = 999
REV_AT_EPOCH   = 6193
BSTAR          = .32272E-4
MEAN_MOTION_DOT = .304E-5
MEAN_MOTION_DDOT = 0

CCSDS_OMM_VERS = 2.0
CREATION_DATE  = 
ORIGINATOR     = 

OBJECT_NAME    = COSMOS 1867
OBJECT_ID      = 1987-060A
CENTER_NAME    = EARTH
REF_FRAME      = TEME
TIME_SYSTEM    = UTC
MEAN_ELEMENT_THEORY = SGP/SGP4

EPOCH          = 2026-01-14T13:52:04.760832
MEAN_MOTION    = 14.31492574
ECCENTRICITY   = .0013841
INCLINATION    = 65.0111
RA_OF_ASC_NODE = 98.2439
ARG_OF_PERICENTER = 274.3119
MEAN_ANOMALY   = 85.6384

EPHEMERIS_TYPE = 0
CLASSIFICATION_TYPE = U
NORAD_CAT_ID   = 18187
ELEMENT_SET_NO = 999
REV_AT_EPOCH   = 1219
BSTAR          = .17099E-4
MEAN_MOTION_DOT = -.55E-6
MEAN_MOTION_DDOT = 0

CCSDS_OMM_VERS = 2.0
CREATION_DATE  = 
ORIGINATOR     = 

OBJECT_NAME    = SL-14 R/B
OBJECT_ID      = 1988-001B
CENTER_NAME    = EARTH
REF_FRAME      = TEME
TIME_SYSTEM    = UTC
MEAN_ELEMENT_THEORY = SGP/SGP4

EPOCH          = 2026-01-14T14:00:37.206144
MEAN_MOTION    = 14.85460981
ECCENTRICITY   = .0019431
INCLINATION    = 82.5115
RA_OF_ASC_NODE = 246.2564
ARG_OF_PERICENTER = 59.6910
MEAN_ANOMALY   = 300.6225

EPHEMERIS_TYPE = 0
CLASSIFICATION_TYPE = U
NORAD_CAT_ID   = 18749
ELEMENT_SET_NO = 999
REV_AT_EPOCH   = 3399
BSTAR          = .32323E-4
MEAN_MOTION_DOT = .304E-5
MEAN_MOTION_DDOT = 0

