SL-14 R/B               
1 16792U 86046B   26014.78770847  .00000333  00000+0  35559-4 0  9999
2 16792  82.4835 131.1055 0024200  48.7528 311.5768 14.85527283118405
SL-14 R/B               
1 16882U 86055B   26014.99361064  .00000382  00000+0  41173-4 0  9992
2 16882  82.5206 177.1243 0019732 146.2579 310.1844 14.85571098111395
AJISAI (EGS)            
1 16908U 86061A   26014.98971418 -.00000072  00000+0  17660-3 0  9997
2 16908  50.0080 258.4773 0011303 149.4028 278.0028 12.44514917461311
COSMOS 1812             
1 17295U 87003A   26014.73825381  .00101978  00000+0  45344-3 0  9990
2 17295  82.4836 256.0838 0002857  48.5560 311.5954 15.84020892135869
SL-14 R/B               
1 17567U 87024B   26014.84070706  .00000361  00000+0  38333-4 0  9995
2 17567  82.5300 143.3609 0019716  80.1167 280.2274 14.86067420 80134
COSMOS 1833             
1 17589U 87027A   26014.56464517  .00000298  00000+0  18513-3 0  9994
2 17589  70.9191  79.7786 0024095 286.4545  73.3928 14.13043598  2672
SL-16 R/B               
1 17590U 87027B   26014.76563486 -.00000044  00000+0  20952-5 0  9995
2 17590  71.0033  30.1246 0006481 224.5002 135.5602 14.17160416  7705
SL-14 R/B               
1 17912U 87038B   26014.94266140  .00000372  00000+0  40445-4 0  9993
2 17912  82.5024 347.4243 0018925 347.2208  12.8525 14.85300507 71252
COSMOS 1844             
1 17973U 87041A   26014.79832021 -.00000249  00000+0 -10426-3 0  9994
2 17973  70.8997 147.8464 0028289 104.4367 255.9897 14.14537953995962
SL-14 R/B               
1 18153U 87055B   26014.79409353  .00000304  00000+0  32272-4 0  9992
2 18153  82.4977  39.8305 0020419 187.5224 172.5689 14.85558204 61939
COSMOS 1867             
1 18187U 87060A   26014.57783288 -.00000055  00000+0  17099-4 0  9997
2 18187  65.0111  98.2439 0013841 274.3119  85.6384 14.31492574 12197
SL-14 R/B               
1 18749U 88001B   26014.58376396  .00000304  00000+0  32323-4 0  9999
2 18749  82.5115 246.2564 0019431  59.6910 300.6225 14.85460981 33998
